NORAD_CAT_ID,OBJECT_NAME,OBJECT_TYPE,EPOCH,MEAN_MOTION,ECCENTRICITY,INCLINATION,RA_OF_ASC_NODE,ARG_OF_PERICENTER,MEAN_ANOMALY,BSTAR,MEAN_MOTION_DOT,MEAN_MOTION_DDOT,TLE_LINE0,TLE_LINE1,TLE_LINE2,SEMIMAJOR_AXIS,PERIOD,APOGEE,PERIGEE,DECAYED
53036.0,STARLINK-4155,PAYLOAD,2023-04-22 01:25:15,15.08849158,0.0001583,53.2153,119.5602,90.6917,269.4256,-8.1152e-06,-4.17e-06,0.0,0 STARLINK-4155,1 53036U 22076BC  23112.05920836 -.00000417  00000-0 -81152-5 0  9992,2 53036  53.2153 119.5602 0001583  90.6917 269.4256 15.08849158 44215,6917.852,95.437,540.812,538.622,0.0
53036.0,STARLINK-4155,PAYLOAD,2023-04-22 17:19:07,15.08834049,0.0001279,53.214,116.586,97.4962,262.6175,4.1558e-05,3.73e-06,0.0,0 STARLINK-4155,1 53036U 22076BC  23112.72161693  .00000373  00000-0  41558-4 0  9998,2 53036  53.2140 116.5860 0001279  97.4962 262.6175 15.08834049 44770,6917.899,95.438,540.648,538.879,0.0
53036.0,STARLINK-4155,PAYLOAD,2023-04-23 10:48:21,15.08839787,0.0001369,53.2152,113.314,95.2857,264.8292,0.0001199,1.621e-05,0.0,0 STARLINK-4155,1 53036U 22076BC  23113.45025375  .00001621  00000-0  11990-3 0  9998,2 53036  53.2152 113.3140 0001369  95.2857 264.8292 15.08839787 44428,6917.881,95.438,540.693,538.799,0.0
53036.0,STARLINK-4155,PAYLOAD,2023-04-24 09:03:45,15.0885182,0.0001553,53.2168,109.1494,91.7451,268.3719,0.00021589,3.151e-05,0.0,0 STARLINK-4155,1 53036U 22076BC  23114.37760428  .00003151  00000-0  21589-3 0  9990,2 53036  53.2168 109.1494 0001553  91.7451 268.3719 15.08851820 44566,6917.844,95.437,540.784,538.635,0.0
53036.0,STARLINK-4155,PAYLOAD,2023-04-25 05:43:45,15.08847746,0.0001646,53.2165,105.2838,90.9461,269.172,7.6406e-05,9.28e-06,0.0,0 STARLINK-4155,1 53036U 22076BC  23115.23872651  .00000928  00000-0  76406-4 0  9996,2 53036  53.2165 105.2838 0001646  90.9461 269.1720 15.08847746 45156,6917.857,95.437,540.86,538.583,0.0
53036.0,STARLINK-4155,PAYLOAD,2023-04-25 08:54:32,15.08848213,0.0001621,53.2165,104.6894,88.9183,271.1994,6.8795e-05,8.07e-06,0.0,0 STARLINK-4155,1 53036U 22076BC  23115.37120578  .00000807  00000-0  68795-4 0  9993,2 53036  53.2165 104.6894 0001621  88.9183 271.1994 15.08848213 44719,6917.855,95.437,540.842,538.599,0.0
53036.0,STARLINK-4155,PAYLOAD,2023-04-26 08:45:20,15.08831716,0.0001519,53.2165,100.2286,90.132,269.9846,-6.6942e-05,-1.353e-05,0.0,0 STARLINK-4155,1 53036U 22076BC  23116.36482181 -.00001353  00000-0 -66942-4 0  9995,2 53036  53.2165 100.2286 0001519  90.1320 269.9846 15.08831716 44867,6917.906,95.438,540.822,538.72,0.0
53036.0,STARLINK-4155,PAYLOAD,2023-04-27 05:25:20,15.08838853,0.0001276,53.2164,96.3644,83.2804,276.8334,5.6701e-05,6.15e-06,0.0,0 STARLINK-4155,1 53036U 22076BC  23117.22593474  .00000615  00000-0  56701-4 0  9999,2 53036  53.2164  96.3644 0001276  83.2804 276.8334 15.08838853 45453,6917.884,95.438,540.632,538.866,0.0
53036.0,STARLINK-4155,PAYLOAD,2023-04-27 07:00:43,15.08843987,0.000136,53.2167,96.0672,83.0865,277.0282,2.611e-05,1.28e-06,0.0,0 STARLINK-4155,1 53036U 22076BC  23117.29217300  .00000128  00000-0  26110-4 0  9997,2 53036  53.2167  96.0672 0001360  83.0865 277.0282 15.08843987 45003,6917.868,95.437,540.674,538.792,0.0
53036.0,STARLINK-4155,PAYLOAD,2023-04-28 05:16:07,15.08843133,0.0001349,53.217,91.9041,86.3617,273.7529,0.00016939,2.409e-05,0.0,0 STARLINK-4155,1 53036U 22076BC  23118.21953150  .00002409  00000-0  16939-3 0  9991,2 53036  53.2170  91.9041 0001349  86.3617 273.7529 15.08843133 45144,6917.871,95.437,540.669,538.803,0.0
53036.0,STARLINK-4155,PAYLOAD,2023-04-28 14:48:26,15.08835914,0.0001267,53.216,90.1226,94.9484,265.1653,0.00010317,1.354e-05,0.0,0 STARLINK-4155,1 53036U 22076BC  23118.61697769  .00001354  00000-0  10317-3 0  9998,2 53036  53.2160  90.1226 0001267  94.9484 265.1653 15.08835914 45663,6917.893,95.438,540.634,538.881,0.0
53036.0,STARLINK-4155,PAYLOAD,2023-04-29 05:06:55,15.08836878,0.0001399,53.2169,87.4471,102.9366,257.1782,-1.4312e-05,-5.16e-06,0.0,0 STARLINK-4155,1 53036U 22076BC  23119.21314085 -.00000516  00000-0 -14312-4 0  9993,2 53036  53.2169  87.4471 0001399 102.9366 257.1782 15.08836878 45291,6917.89,95.438,540.723,538.787,0.0
53036.0,STARLINK-4155,PAYLOAD,2023-04-30 06:33:05,15.08844484,0.00012,53.2166,82.6868,96.759,263.3538,8.5587e-07,-2.74e-06,0.0,0 STARLINK-4155,1 53036U 22076BC  23120.27297597 -.00000274  00000-0  85587-6 0  9993,2 53036  53.2166  82.6868 0001200  96.7590 263.3538 15.08844484 45914,6917.867,95.437,540.562,538.902,0.0
53036.0,STARLINK-4155,PAYLOAD,2023-05-01 06:23:52,15.08839811,0.0001279,53.2173,78.225,96.2465,263.8673,9.9577e-05,1.297e-05,0.0,0 STARLINK-4155,1 53036U 22076BC  23121.26657845  .00001297  00000-0  99577-4 0  9996,2 53036  53.2173  78.2250 0001279  96.2465 263.8673 15.08839811 46060,6917.881,95.438,540.631,538.861,0.0
53036.0,STARLINK-4155,PAYLOAD,2023-05-02 14:11:35,15.08840465,0.000136,53.2168,72.2776,84.0862,276.0285,3.7345e-05,3.06e-06,0.0,0 STARLINK-4155,1 53036U 22076BC  23122.59138164  .00000306  00000-0  37345-4 0  9996,2 53036  53.2168  72.2776 0001360  84.0862 276.0285 15.08840465 45801,6917.879,95.438,540.685,538.803,0.0
53036.0,STARLINK-4155,PAYLOAD,2023-05-03 06:05:26,15.08847508,0.0001222,53.2178,69.3035,96.7775,263.3356,4.5551e-05,4.37e-06,0.0,0 STARLINK-4155,1 53036U 22076BC  23123.25377676  .00000437  00000-0  45551-4 0  9996,2 53036  53.2178  69.3035 0001222  96.7775 263.3356 15.08847508 45901,6917.857,95.437,540.568,538.877,0.0
53036.0,STARLINK-4155,PAYLOAD,2023-05-04 02:45:27,15.08845586,0.0001262,53.2172,65.4354,98.0853,262.0283,4.9434e-05,4.99e-06,0.0,0 STARLINK-4155,1 53036U 22076BC  23124.11489632  .00000499  00000-0  49434-4 0  9990,2 53036  53.2172  65.4354 0001262  98.0853 262.0283 15.08845586 46496,6917.863,95.437,540.601,538.855,0.0
53036.0,STARLINK-4155,PAYLOAD,2023-05-04 05:56:13,15.08845083,0.0001254,53.2173,64.8409,97.7773,262.3362,4.3126e-05,3.99e-06,0.0,0 STARLINK-4155,1 53036U 22076BC  23124.24737649  .00000399  00000-0  43126-4 0  9999,2 53036  53.2173  64.8409 0001254  97.7773 262.3362 15.08845083 46054,6917.865,95.437,540.597,538.862,0.0
53036.0,STARLINK-4155,PAYLOAD,2023-05-04 23:25:28,15.08838931,0.0001324,53.2177,61.5702,100.121,259.9932,4.3479e-06,-2.19e-06,0.0,0 STARLINK-4155,1 53036U 22076BC  23124.97602138 -.00000219  00000-0  43479-5 0  9997,2 53036  53.2177  61.5702 0001324 100.1210 259.9932 15.08838931 46623,6917.884,95.438,540.665,538.833,0.0
53036.0,STARLINK-4155,PAYLOAD,2023-05-05 05:47:00,15.08847114,0.0001109,53.2179,60.3828,89.3057,270.8062,6.1905e-05,6.98e-06,0.0,0 STARLINK-4155,1 53036U 22076BC  23125.24097436  .00000698  00000-0  61905-4 0  9990,2 53036  53.2179  60.3828 0001109  89.3057 270.8062 15.08847114 46662,6917.859,95.437,540.491,538.956,0.0
53036.0,STARLINK-4155,PAYLOAD,2023-05-05 20:05:29,15.08834356,0.0001163,53.2185,57.7069,95.9988,264.1137,-6.0358e-05,-1.248e-05,0.0,0 STARLINK-4155,1 53036U 22076BC  23125.83714805 -.00001248  00000-0 -60358-4 0  9996,2 53036  53.2185  57.7069 0001163  95.9988 264.1137 15.08834356 46294,6917.898,95.438,540.567,538.958,0.0
53036.0,STARLINK-4155,PAYLOAD,2023-05-06 00:51:38,15.08835277,0.0001148,53.2183,56.815,95.6052,264.5071,-5.5413e-05,-1.169e-05,0.0,0 STARLINK-4155,1 53036U 22076BC  23126.03586761 -.00001169  00000-0 -55413-4 0  9995,2 53036  53.2183  56.8150 0001148  95.6052 264.5071 15.08835277 46783,6917.895,95.438,540.554,538.966,0.0
53036.0,STARLINK-4155,PAYLOAD,2023-05-06 05:37:48,15.08839489,0.0001105,53.2179,55.9233,90.484,269.6279,-1.6272e-05,-5.47e-06,0.0,0 STARLINK-4155,1 53036U 22076BC  23126.23458466 -.00000547  00000-0 -16272-4 0  9996,2 53036  53.2179  55.9233 0001105  90.4840 269.6279 15.08839489 46359,6917.882,95.438,540.511,538.983,0.0
53036.0,STARLINK-4155,PAYLOAD,2023-05-07 02:17:47,15.08853664,8.63e-05,53.2171,52.0576,87.4633,272.6458,0.00013076,1.795e-05,0.0,0 STARLINK-4155,1 53036U 22076BC  23127.09569155  .00001795  00000-0  13076-3 0  9991,2 53036  53.2171  52.0576 0000863  87.4633 272.6458 15.08853664 46944,6917.839,95.437,540.301,539.107,0.0
53036.0,STARLINK-4155,PAYLOAD,2023-05-08 03:44:00,15.08831084,0.0001106,53.2182,47.2998,80.8322,279.2795,2.9205e-05,1.77e-06,0.0,0 STARLINK-4155,1 53036U 22076BC  23128.15555743  .00000177  00000-0  29205-4 0  9992,2 53036  53.2182  47.2998 0001106  80.8322 279.2795 15.08831084 47101,6917.908,95.438,540.538,539.008,0.0
53036.0,STARLINK-4155,PAYLOAD,2023-05-08 11:40:55,15.08839567,0.0001124,53.2183,45.8128,83.5192,276.5928,7.4495e-05,8.98e-06,0.0,0 STARLINK-4155,1 53036U 22076BC  23128.48675208  .00000898  00000-0  74495-4 0  9998,2 53036  53.2183  45.8128 0001124  83.5192 276.5928 15.08839567 47153,6917.882,95.438,540.524,538.969,0.0
53036.0,STARLINK-4155,PAYLOAD,2023-05-09 03:34:45,15.08866111,0.0001175,53.2174,42.8395,91.5548,268.5579,0.00034204,5.164e-05,0.0,0 STARLINK-4155,1 53036U 22076BC  23129.14913577  .00005164  00000-0  34204-3 0  9990,2 53036  53.2174  42.8395 0001175  91.5548 268.5579 15.08866111 47255,6917.801,95.436,540.478,538.853,0.0
53036.0,STARLINK-4155,PAYLOAD,2023-05-10 03:25:33,15.08853514,0.0001446,53.2172,38.3787,86.6896,273.4261,0.00080955,0.00012624,0.0,0 STARLINK-4155,1 53036U 22076BC  23130.14274850  .00012624  00000-0  80955-3 0  9999,2 53036  53.2172  38.3787 0001446  86.6896 273.4261 15.08853514 46941,6917.839,95.437,540.704,538.704,0.0
53036.0,STARLINK-4155,PAYLOAD,2023-05-11 00:05:34,15.08860013,0.0001408,53.2181,34.5121,87.7875,272.3279,0.0013425,0.00021154,0.0,0 STARLINK-4155,1 53036U 22076BC  23131.00386750  .00021154  00000-0  13425-2 0  9993,2 53036  53.2181  34.5121 0001408  87.7875 272.3279 15.08860013 47072,6917.819,95.436,540.658,538.71,0.0
53036.0,STARLINK-4155,PAYLOAD,2023-05-11 23:56:21,15.08841515,0.0001339,53.2168,30.054,68.6911,291.4224,0.00064617,0.00010011,0.0,0 STARLINK-4155,1 53036U 22076BC  23131.99747514  .00010011  00000-0  64617-3 0  9990,2 53036  53.2168  30.0540 0001339  68.6911 291.4224 15.08841515 47680,6917.876,95.437,540.667,538.814,0.0
